STARLINK-4799           
1 53860U 22114AU  26197.83335647  .00014638  00000+0  70636-3 0  9992
2 53860  53.1607  63.9022 0001755  91.2968 176.2075 15.18914909  5786
STARLINK-4781           
1 53861U 22114AV  26197.83335647  .00012659  00000+0  53545-3 0  9994
2 53861  53.1607  63.0404 0001220  64.3117 291.1561 15.23572957  5782
STARLINK-4788           
1 53863U 22114AX  26197.83335647  .00013323  00000+0  64717-3 0  9998
2 53863  53.1609  63.8318 0001419 107.7709 195.3322 15.18764519  5834
STARLINK-4779           
1 53864U 22114AY  26197.83335647  .00002759  00000+0  15850-3 0  9994
2 53864  53.1590  63.5156 0000301  33.7886  67.7354 15.15830427  5841
STARLINK-4762           
1 53866U 22114BA  26197.55508528  .00000073  00000+0  13004-4 0  9992
2 53866  53.1611  42.0626 0001160  83.0000 277.1135 15.35393610212890
STARLINK-4793           
1 53867U 22114BB  26197.61765031  .00000860  00000+0  25720-4 0  9996
2 53867  53.2197  40.7994 0005227  22.4706 337.6530 15.46471340212926
STARLINK-4789           
1 53868U 22114BC  26197.83335647 -.00005139  00000+0 -13652-3 0  9993
2 53868  53.1585  41.2146 0001344  78.1244 155.1896 15.35396217  5838
STARLINK-4810           
1 53869U 22114BD  26197.83335647 -.00013310  00000+0 -41777-3 0  9993
2 53869  53.1593  51.7585 0001251  83.1727 212.1816 15.31710390  5788
STARLINK-4732           
1 53870U 22114BE  26197.83335647 -.00010128  00000+0 -28907-3 0  9999
2 53870  53.1583  40.6003 0001485  84.2973  95.3556 15.34392428  5733
STARLINK-4740           
1 53871U 22114BF  26197.83335647 -.00011693  00000+0 -32465-3 0  9992
2 53871  53.1605  40.8740 0001354  97.9805 301.8381 15.35415166  5848
STARLINK-5028           
1 53886U 22119A   26197.14455459  .00000561  00000+0  53367-4 0  9996
2 53886  53.1606 107.4255 0001655  92.6198 267.4983 15.08834134211076
STARLINK-5029           
1 53887U 22119B   26197.72966565 -.00000929  00000+0 -40288-4 0  9994
2 53887  53.1607 104.6745 0001514  93.2279 266.8885 15.08835434211160
STARLINK-5031           
1 53889U 22119D   26197.13718590  .00000558  00000+0  53155-4 0  9997
2 53889  53.1605 107.3786 0001459  89.3145 270.8014 15.08833325211077
STARLINK-5050           
1 53890U 22119E   26197.83335647  .00009977  00000+0  52744-3 0  9990
2 53890  53.1591  68.7131 0002126  98.3313  26.6875 15.16072629  5744
STARLINK-5041           
1 53891U 22119F   26197.83335647  .00140017  00000+0  19677-2 0  9999
2 53891  53.2157  85.3435 0001577  80.0451 210.0145 15.55750464  5805
STARLINK-5046           
1 53892U 22119G   26197.04515225 -.00000041  00000+0  15532-4 0  9996
2 53892  53.1597 107.5168 0001449  93.9375 266.1782 15.08829792211064
STARLINK-5052           
1 53893U 22119H   26197.18964479  .00000694  00000+0  61731-4 0  9996
2 53893  53.1598 106.9957 0001363  91.5708 268.5440 15.08830150211083
STARLINK-5043           
1 53894U 22119J   26197.87168365 -.00112677  00000+0 -40786-2 0  9995
2 53894  53.2121  91.0723 0000450 108.5417 251.5632 15.28331553211376
STARLINK-5037           
1 53896U 22119L   26197.77010750 -.00000441  00000+0 -95850-5 0  9990
2 53896  53.1600 104.2207 0001501  94.5354 265.5809 15.08832052211172
STARLINK-5035           
1 53897U 22119M   26197.83335647 -.00158823  19310-4 -43969-3 0  9992
2 53897  53.2151  73.5512 0000569  80.1265 332.1583 15.92726840  5909
STARLINK-5044           
1 53898U 22119N   26197.75905765 -.00002352  00000+0 -12969-3 0  9990
2 53898  53.1607 104.1559 0002931  55.8734 304.2535 15.08831844211175
STARLINK-5045           
1 53900U 22119Q   26197.15552014 -.00000892  00000+0 -37960-4 0  9999
2 53900  53.1612 106.7876 0001528  94.6241 265.4925 15.08837446211085
STARLINK-5021           
1 53902U 22119S   26197.83335647  .00014398  00000+0  67210-3 0  9991
2 53902  53.1609  53.1130 0001991  70.5373  33.6120 15.20079411  5788
STARLINK-5022           
1 53903U 22119T   26197.76738272 -.00000107  00000+0  11351-4 0  9995
2 53903  53.1604 104.2015 0001206 101.5514 258.5613 15.08834236211172
STARLINK-4787           
1 53904U 22119U   26197.83335647  .00020927  00000+0  80665-3 0  9997
2 53904  53.1591 102.6103 0001340  96.9361 210.3437 15.26310260  5788
STARLINK-5003           
1 53905U 22119V   26197.14180617  .00000165  00000+0  28491-4 0  9999
2 53905  53.1599  97.4287 0001411  96.0345 264.0808 15.08826675211210
STARLINK-5054           
1 53906U 22119W   26196.89517244 -.00000518  00000+0 -14454-4 0  9999
2 53906  53.1593  98.0298 0001306  80.7824 279.3315 15.08833653211181
STARLINK-5057           
1 53908U 22119Y   26197.83335647  .00053053  00000+0  19478-2 0  9990
2 53908  53.1610  93.4612 0001626 135.3321 107.8911 15.27449434  5781
STARLINK-4796           
1 53909U 22119Z   26196.96526635  .00000406  00000+0  44426-4 0  9990
2 53909  53.1610  98.4877 0001359  76.7663 283.3479 15.08017265211184
STARLINK-5048           
1 53911U 22119AB  26197.73426507  .00000319  00000+0  38130-4 0  9994
2 53911  53.1601  94.7251 0001416  95.3208 264.7945 15.08833121211300
