OBJECT_NAME,OBJECT_ID,EPOCH,MEAN_MOTION,ECCENTRICITY,INCLINATION,RA_OF_ASC_NODE,ARG_OF_PERICENTER,MEAN_ANOMALY,EPHEMERIS_TYPE,CLASSIFICATION_TYPE,NORAD_CAT_ID,ELEMENT_SET_NO,REV_AT_EPOCH,BSTAR,MEAN_MOTION_DOT,MEAN_MOTION_DDOT
STARLINK-4799,2022-114AU,2026-07-16T20:00:01.999008,15.18914909,.0001755,53.1607,63.9022,91.2968,176.2075,0,U,53860,999,578,.70636E-3,.14638E-3,0
STARLINK-4781,2022-114AV,2026-07-16T20:00:01.999008,15.23572957,.000122,53.1607,63.0404,64.3117,291.1561,0,U,53861,999,578,.53545E-3,.12659E-3,0
STARLINK-4788,2022-114AX,2026-07-16T20:00:01.999008,15.18764519,.0001419,53.1609,63.8318,107.7709,195.3322,0,U,53863,999,583,.64717E-3,.13323E-3,0
STARLINK-4779,2022-114AY,2026-07-16T20:00:01.999008,15.15830427,.0000301,53.1590,63.5156,33.7886,67.7354,0,U,53864,999,584,.1585E-3,.2759E-4,0
STARLINK-4762,2022-114BA,2026-07-16T13:19:19.368192,15.35393610,.000116,53.1611,42.0626,83.0000,277.1135,0,U,53866,999,21289,.13004E-4,.73E-6,0
STARLINK-4793,2022-114BB,2026-07-16T14:49:24.986784,15.46471340,.0005227,53.2197,40.7994,22.4706,337.6530,0,U,53867,999,21292,.2572E-4,.86E-5,0
STARLINK-4789,2022-114BC,2026-07-16T20:00:01.999008,15.35396217,.0001344,53.1585,41.2146,78.1244,155.1896,0,U,53868,999,583,-.13652E-3,-.5139E-4,0
STARLINK-4810,2022-114BD,2026-07-16T20:00:01.999008,15.31710390,.0001251,53.1593,51.7585,83.1727,212.1816,0,U,53869,999,578,-.41777E-3,-.1331E-3,0
STARLINK-4732,2022-114BE,2026-07-16T20:00:01.999008,15.34392428,.0001485,53.1583,40.6003,84.2973,95.3556,0,U,53870,999,573,-.28907E-3,-.10128E-3,0
STARLINK-4740,2022-114BF,2026-07-16T20:00:01.999008,15.35415166,.0001354,53.1605,40.8740,97.9805,301.8381,0,U,53871,999,584,-.32465E-3,-.11693E-3,0
STARLINK-5028,2022-119A,2026-07-16T03:28:09.516576,15.08834134,.00016558,53.1606,107.4255,92.6198,267.4983,0,U,53886,999,21107,.53366878E-4,.561E-5,0
STARLINK-5029,2022-119B,2026-07-16T17:30:43.112160,15.08835434,.0001514,53.1607,104.6745,93.2279,266.8885,0,U,53887,999,21116,-.40288E-4,-.929E-5,0
STARLINK-5031,2022-119D,2026-07-16T03:17:32.861760,15.08833325,.00014598,53.1605,107.3786,89.3145,270.8014,0,U,53889,999,21107,.53154962E-4,.558E-5,0
STARLINK-5050,2022-119E,2026-07-16T20:00:01.999008,15.16072629,.0002126,53.1591,68.7131,98.3313,26.6875,0,U,53890,999,574,.52744E-3,.9977E-4,0
STARLINK-5041,2022-119F,2026-07-16T20:00:01.999008,15.55750464,.0001577,53.2157,85.3435,80.0451,210.0145,0,U,53891,999,580,.19677E-2,.140017E-2,0
STARLINK-5046,2022-119G,2026-07-16T01:05:01.154400,15.08829792,.00014499,53.1597,107.5168,93.9375,266.1782,0,U,53892,999,21106,.15531548E-4,-.41E-6,0
STARLINK-5052,2022-119H,2026-07-16T04:33:05.309856,15.08830150,.00013639,53.1598,106.9957,91.5708,268.5440,0,U,53893,999,21108,.61730979E-4,.694E-5,0
STARLINK-5043,2022-119J,2026-07-16T20:55:13.467360,15.28331553,.000045,53.2121,91.0723,108.5417,251.5632,0,U,53894,999,21137,-.40786E-2,-.112677E-2,0
STARLINK-5037,2022-119L,2026-07-16T18:28:57.288000,15.08832052,.0001501,53.1600,104.2207,94.5354,265.5809,0,U,53896,999,21117,-.9585E-5,-.441E-5,0
STARLINK-5035,2022-119M,2026-07-16T20:00:01.999008,15.92726840,.0000569,53.2151,73.5512,80.1265,332.1583,0,U,53897,999,590,-.43969E-3,-.158823E-2,.1931E-4
STARLINK-5044,2022-119N,2026-07-16T18:13:02.580960,15.08831844,.0002931,53.1607,104.1559,55.8734,304.2535,0,U,53898,999,21117,-.12969E-3,-.2352E-4,0
STARLINK-5045,2022-119Q,2026-07-16T03:43:56.940096,15.08837446,.00015284,53.1612,106.7876,94.6241,265.4925,0,U,53900,999,21108,-.3796021E-4,-.892E-5,0
STARLINK-5021,2022-119S,2026-07-16T20:00:01.999008,15.20079411,.0001991,53.1609,53.1130,70.5373,33.6120,0,U,53902,999,578,.6721E-3,.14398E-3,0
STARLINK-5022,2022-119T,2026-07-16T18:25:01.867008,15.08834236,.0001206,53.1604,104.2015,101.5514,258.5613,0,U,53903,999,21117,.11351E-4,-.107E-5,0
STARLINK-4787,2022-119U,2026-07-16T20:00:01.999008,15.26310260,.000134,53.1591,102.6103,96.9361,210.3437,0,U,53904,999,578,.80665E-3,.20927E-3,0
STARLINK-5003,2022-119V,2026-07-16T03:24:12.053088,15.08826675,.00014113,53.1599,97.4287,96.0345,264.0808,0,U,53905,999,21121,.28490953E-4,.165E-5,0
STARLINK-5054,2022-119W,2026-07-15T21:29:02.898816,15.08833653,.0001306,53.1593,98.0298,80.7824,279.3315,0,U,53906,999,21118,-.14454E-4,-.518E-5,0
STARLINK-5057,2022-119Y,2026-07-16T20:00:01.999008,15.27449434,.0001626,53.1610,93.4612,135.3321,107.8911,0,U,53908,999,578,.19478E-2,.53053E-3,0
STARLINK-4796,2022-119Z,2026-07-15T23:09:59.012640,15.08017265,.00013599,53.1610,98.4877,76.7663,283.3479,0,U,53909,999,21118,.44426149E-4,.406E-5,0
STARLINK-5048,2022-119AB,2026-07-16T17:37:20.502048,15.08833121,.0001416,53.1601,94.7251,95.3208,264.7945,0,U,53911,999,21130,.3813E-4,.319E-5,0
